CCSDS_OMM_VERS,COMMENT,CREATION_DATE,ORIGINATOR,OBJECT_NAME,OBJECT_ID,CENTER_NAME,REF_FRAME,TIME_SYSTEM,MEAN_ELEMENT_THEORY,EPOCH,MEAN_MOTION,ECCENTRICITY,INCLINATION,RA_OF_ASC_NODE,ARG_OF_PERICENTER,MEAN_ANOMALY,EPHEMERIS_TYPE,CLASSIFICATION_TYPE,NORAD_CAT_ID,ELEMENT_SET_NO,REV_AT_EPOCH,BSTAR,MEAN_MOTION_DOT,MEAN_MOTION_DDOT,SEMIMAJOR_AXIS,PERIOD,APOAPSIS,PERIAPSIS,OBJECT_TYPE,RCS_SIZE,COUNTRY_CODE,LAUNCH_DATE,SITE,DECAY_DATE,FILE,GP_ID,TLE_LINE0,TLE_LINE1,TLE_LINE2
"3.0","GENERATED VIA SPACE-TRACK.ORG API","2026-03-25T17:29:05","18 SPCS","NOAA 16 DEB","2000-055RX","EARTH","TEME","UTC","SGP4","2026-03-25T06:55:50.114208","14.77738257","0.00219240","98.9307","289.6870","355.5758","4.5252","0","U","42379","999","52383","0.00275118540000","0.00019798","0.0000000000000","7014.609","97.446","651.853","621.096","DEBRIS","SMALL","US","2000-09-21","AFWTR","","5096884","317015211","0 NOAA 16 DEB","1 42379U 00055RX  26084.28877447  .00019798  00000-0  27512-2 0  9995","2 42379  98.9307 289.6870 0021924 355.5758   4.5252 14.77738257523839"
"3.0","GENERATED VIA SPACE-TRACK.ORG API","2026-03-25T17:29:05","18 SPCS","NOAA 16 DEB","2000-055SN","EARTH","TEME","UTC","SGP4","2026-03-25T07:20:56.408352","14.57518408","0.00340707","98.9765","299.0320","345.2194","14.8003","0","U","42394","999","52338","0.00157545690000","0.00007172","0.0000000000000","7079.335","98.798","725.320","677.080","DEBRIS","SMALL","US","2000-09-21","AFWTR","","5096884","317015216","0 NOAA 16 DEB","1 42394U 00055SN  26084.30620843  .00007172  00000-0  15755-2 0  9990","2 42394  98.9765 299.0320 0034071 345.2194  14.8003 14.57518408523386"
"3.0","GENERATED VIA SPACE-TRACK.ORG API","2026-03-25T17:29:05","18 SPCS","NOAA 16 DEB","2000-055SQ","EARTH","TEME","UTC","SGP4","2026-03-25T09:15:29.947392","14.58419429","0.00256263","98.7983","233.7502","263.8572","95.9706","0","U","42396","999","52509","0.00225059000000","0.00010443","0.0000000000000","7076.419","98.737","716.418","680.150","DEBRIS","SMALL","US","2000-09-21","AFWTR","","5096884","317015717","0 NOAA 16 DEB","1 42396U 00055SQ  26084.38576328  .00010443  00000-0  22506-2 0  9995","2 42396  98.7983 233.7502 0025626 263.8572  95.9706 14.58419429525090"
"3.0","GENERATED VIA SPACE-TRACK.ORG API","2026-03-25T04:32:27","18 SPCS","NOAA 16 DEB","2000-055SV","EARTH","TEME","UTC","SGP4","2026-03-24T13:53:55.733856","14.58492308","0.00434745","98.9573","314.5468","303.3863","56.3178","0","U","42401","999","52609","0.00163981440000","0.00007666","0.0000000000000","7076.183","98.732","728.812","667.285","DEBRIS","SMALL","US","2000-09-21","AFWTR","","5096755","316982026","0 NOAA 16 DEB","1 42401U 00055SV  26083.57911729  .00007666  00000-0  16398-2 0  9995","2 42401  98.9573 314.5468 0043475 303.3863  56.3178 14.58492308526090"
"3.0","GENERATED VIA SPACE-TRACK.ORG API","2026-03-25T17:29:05","18 SPCS","NOAA 16 DEB","2000-055SZ","EARTH","TEME","UTC","SGP4","2026-03-25T15:20:51.951552","14.53061245","0.00264102","99.0297","329.3796","10.8138","349.3618","0","U","42405","999","52169","0.00185781800000","0.00007666","0.0000000000000","7093.805","99.101","734.405","696.935","DEBRIS","SMALL","US","2000-09-21","AFWTR","","5096884","317015220","0 NOAA 16 DEB","1 42405U 00055SZ  26084.63949018  .00007666  00000-0  18578-2 0  9991","2 42405  99.0297 329.3796 0026410  10.8138 349.3618 14.53061245521694"
"3.0","GENERATED VIA SPACE-TRACK.ORG API","2026-03-25T17:29:05","18 SPCS","NOAA 16 DEB","2000-055TB","EARTH","TEME","UTC","SGP4","2026-03-25T11:47:34.407744","14.91536527","0.00103040","98.9641","282.2061","225.2767","134.7610","0","U","42407","999","51811","0.00651747180000","0.00065900","0.0000000000000","6971.281","96.545","600.329","585.963","DEBRIS","SMALL","US","2000-09-21","AFWTR","","5096884","317015221","0 NOAA 16 DEB","1 42407U 00055TB  26084.49137046  .00065900  00000-0  65175-2 0  9997","2 42407  98.9641 282.2061 0010304 225.2767 134.7610 14.91536527518117"
"3.0","GENERATED VIA SPACE-TRACK.ORG API","2026-03-25T17:29:05","18 SPCS","NOAA 16 DEB","2000-055TD","EARTH","TEME","UTC","SGP4","2026-03-25T09:21:20.004768","14.76054142","0.00245492","98.7718","244.5076","205.5536","154.4459","0","U","42409","999","52296","0.00366779480000","0.00025438","0.0000000000000","7019.944","97.557","659.042","624.576","DEBRIS","SMALL","US","2000-09-21","AFWTR","","5096884","317015222","0 NOAA 16 DEB","1 42409U 00055TD  26084.38981487  .00025438  00000-0  36678-2 0  9991","2 42409  98.7718 244.5076 0024549 205.5536 154.4459 14.76054142522969"
"3.0","GENERATED VIA SPACE-TRACK.ORG API","2026-03-25T04:32:27","18 SPCS","NOAA 16 DEB","2000-055TE","EARTH","TEME","UTC","SGP4","2026-03-24T20:37:33.265056","14.53962750","0.00264942","98.8229","232.2912","347.2586","12.7937","0","U","42410","999","52450","0.00189686250000","0.00007984","0.0000000000000","7090.872","99.040","731.524","693.950","DEBRIS","SMALL","US","2000-09-21","AFWTR","","5096755","316982529","0 NOAA 16 DEB","1 42410U 00055TE  26083.85941279  .00007984  00000-0  18969-2 0  9998","2 42410  98.8229 232.2912 0026494 347.2586  12.7937 14.53962750524509"
"3.0","GENERATED VIA SPACE-TRACK.ORG API","2026-03-25T17:29:05","18 SPCS","NOAA 16 DEB","2000-055TH","EARTH","TEME","UTC","SGP4","2026-03-25T10:05:27.034656","14.47096993","0.00197622","98.9343","250.4407","12.4607","347.7069","0","U","42413","999","52337","0.00159588610000","0.00005785","0.0000000000000","7113.283","99.510","749.205","721.091","DEBRIS","SMALL","US","2000-09-21","AFWTR","","5096884","317015223","0 NOAA 16 DEB","1 42413U 00055TH  26084.42045179  .00005785  00000-0  15959-2 0  9992","2 42413  98.9343 250.4407 0019762  12.4607 347.7069 14.47096993523377"
"3.0","GENERATED VIA SPACE-TRACK.ORG API","2026-03-24T10:20:52","18 SPCS","NOAA 16 DEB","2000-055TL","EARTH","TEME","UTC","SGP4","2026-03-24T03:05:53.870208","14.60654677","0.00133942","98.8534","226.7879","169.9488","190.1980","0","U","42416","999","51744","0.00398125710000","0.00019404","0.0000000000000","7069.198","98.586","700.532","681.594","DEBRIS","SMALL","US","2000-09-21","AFWTR","","5095853","316931030","0 NOAA 16 DEB","1 42416U 00055TL  26083.12909572  .00019404  00000-0  39813-2 0  9995","2 42416  98.8534 226.7879 0013394 169.9488 190.1980 14.60654677517447"
"3.0","GENERATED VIA SPACE-TRACK.ORG API","2026-03-24T10:20:52","18 SPCS","NOAA 16 DEB","2000-055TP","EARTH","TEME","UTC","SGP4","2026-03-24T01:59:10.216032","14.61291657","0.00180021","98.8202","209.8659","211.2453","148.7678","0","U","42419","999","52043","0.00475985940000","0.00023575","0.0000000000000","7067.143","98.543","701.731","676.286","DEBRIS","SMALL","US","2000-09-21","AFWTR","","5095853","316930532","0 NOAA 16 DEB","1 42419U 00055TP  26083.08275713  .00023575  00000-0  47599-2 0  9990","2 42419  98.8202 209.8659 0018002 211.2453 148.7678 14.61291657520436"
"3.0","GENERATED VIA SPACE-TRACK.ORG API","2026-03-24T04:52:42","18 SPCS","NOAA 16 DEB","2000-055TX","EARTH","TEME","UTC","SGP4","2026-03-19T10:59:24.396864","14.86759314","0.00304628","98.8908","341.7354","115.4394","244.9976","0","U","42427","999","50455","0.00165335970000","0.00014804","0.0000000000000","6986.206","96.855","629.353","586.789","DEBRIS","SMALL","US","2000-09-21","AFWTR","","5095836","316898352","0 NOAA 16 DEB","1 42427U 00055TX  26078.45792126  .00014804  00000-0  16534-2 0  9996","2 42427  98.8908 341.7354 0030463 115.4394 244.9976 14.86759314504551"
"3.0","GENERATED VIA SPACE-TRACK.ORG API","2026-03-24T04:52:42","18 SPCS","DELTA 1 DEB","1972-058JN","EARTH","TEME","UTC","SGP4","2026-03-23T17:29:40.619040","14.72922647","0.00121017","97.7925","67.3484","238.0129","298.5864","0","U","42555","999","66179","0.00018492917000","0.00001139","0.0000000000000","7029.890","97.765","660.263","643.248","DEBRIS","SMALL","US","1972-07-23","AFWTR","","5095836","316897906","0 DELTA 1 DEB","1 42555U 72058JN  26082.72894235  .00001139  00000-0  18493-3 0  9993","2 42555  97.7925  67.3484 0012102 238.0129 298.5864 14.72922647661790"
"3.0","GENERATED VIA SPACE-TRACK.ORG API","2026-03-23T10:28:44","18 SPCS","DELTA 1 DEB","1972-058JR","EARTH","TEME","UTC","SGP4","2026-03-23T03:11:27.133152","14.67491453","0.00357704","97.8777","50.8595","302.0572","57.7161","0","U","42558","999","65787","0.00027655838000","0.00001534","0.0000000000000","7047.225","98.127","694.298","643.882","DEBRIS","SMALL","US","1972-07-23","AFWTR","","5094928","316846833","0 DELTA 1 DEB","1 42558U 72058JR  26082.13295293  .00001534  00000-0  27656-3 0  9990","2 42558  97.8777  50.8595 0035770 302.0572  57.7161 14.67491453657878"
"3.0","GENERATED VIA SPACE-TRACK.ORG API","2026-03-25T04:32:27","18 SPCS","DELTA 1 DEB","1972-058JY","EARTH","TEME","UTC","SGP4","2026-03-24T16:48:06.085152","14.55764569","0.00375229","97.8617","244.0595","86.3763","274.1726","0","U","42565","999","65417","0.00015297770000","0.00000633","0.0000000000000","7085.020","98.917","733.470","680.300","DEBRIS","SMALL","US","1972-07-23","AFWTR","","5096755","316982093","0 DELTA 1 DEB","1 42565U 72058JY  26083.70007043  .00000633  00000-0  15298-3 0  9994","2 42565  97.8617 244.0595 0037523  86.3763 274.1726 14.55764569654178"
"3.0","GENERATED VIA SPACE-TRACK.ORG API","2026-03-25T04:32:27","18 SPCS","DELTA 1 DEB","1972-058KA","EARTH","TEME","UTC","SGP4","2026-03-24T19:26:39.009408","14.67255219","0.01106605","98.5072","217.8095","261.9981","96.8653","0","U","42567","999","65832","0.00020131374000","0.00001182","0.0000000000000","7047.981","98.142","747.839","591.853","DEBRIS","SMALL","US","1972-07-23","AFWTR","","5096755","316982094","0 DELTA 1 DEB","1 42567U 72058KA  26083.81017372  .00001182  00000-0  20131-3 0  9996","2 42567  98.5072 217.8095 0110661 261.9981  96.8653 14.67255219658323"
